STARLINK-6309
1 56535U 23065AJ  26090.83335647  .00851262  00000+0  31632-1 0  9995
2 56535  42.9996 101.3232 0001439 294.0713 147.2103 15.24477853  5829
STARLINK-6234
1 57331U 23099D   26090.83335647  .00849483  00000+0  31577-1 0  9997
2 57331  42.9996 127.0904 0001413 295.5240 150.2054 15.24471893  5779
STARLINK-30188
1 57432U 23105C   26090.83335647  .00051751  00000+0  20607-2 0  9993
2 57432  42.9988 138.0272 0001755 265.2870 341.0797 15.24481943  5832
